{
    "links": {
        "self": "http://www.neowsapp.com/rest/v1/neo/3878600?api_key=iIulBulltgU6a56xZRHN4H3l9WmuAYTsLGpBGhQ2"
    },
    "id": "3878600",
    "neo_reference_id": "3878600",
    "name": "(2019 TA4)",
    "designation": "2019 TA4",
    "nasa_jpl_url": "http://ssd.jpl.nasa.gov/sbdb.cgi?sstr=3878600",
    "absolute_magnitude_h": 20.3,
    "estimated_diameter": {
        "kilometers": {
            "estimated_diameter_min": 0.2315021222,
            "estimated_diameter_max": 0.5176544822
        },
        "meters": {
            "estimated_diameter_min": 231.5021222103,
            "estimated_diameter_max": 517.6544821978
        },
        "miles": {
            "estimated_diameter_min": 0.1438487052,
            "estimated_diameter_max": 0.3216554833
        },
        "feet": {
            "estimated_diameter_min": 759.5214226325,
            "estimated_diameter_max": 1698.3415313737
        }
    },
    "is_potentially_hazardous_asteroid": false,
    "close_approach_data": [
        {
            "close_approach_date": "2012-04-12",
            "close_approach_date_full": "2012-Apr-12 07:39",
            "epoch_date_close_approach": 1334216340000,
            "relative_velocity": {
                "kilometers_per_second": "29.1273560232",
                "kilometers_per_hour": "104858.4816833904",
                "miles_per_hour": "65154.9826882156"
            },
            "miss_distance": {
                "astronomical": "0.250853262",
                "lunar": "97.581918918",
                "kilometers": "37527113.67775194",
                "miles": "23318267.156939172"
            },
            "orbiting_body": "Earth"
        },
        {
            "close_approach_date": "2019-09-26",
            "close_approach_date_full": "2019-Sep-26 19:24",
            "epoch_date_close_approach": 1569525840000,
            "relative_velocity": {
                "kilometers_per_second": "19.0560701416",
                "kilometers_per_hour": "68601.852509801",
                "miles_per_hour": "42626.5232997705"
            },
            "miss_distance": {
                "astronomical": "0.2690070301",
                "lunar": "104.6437347089",
                "kilometers": "40242878.717985887",
                "miles": "25005765.3026117606"
            },
            "orbiting_body": "Earth"
        }
    ],
    "orbital_data": {
        "orbit_id": "20",
        "orbit_determination_date": "2019-12-04 07:19:54",
        "first_observation_date": "2019-10-07",
        "last_observation_date": "2019-11-02",
        "data_arc_in_days": 26,
        "observations_used": 148,
        "orbit_uncertainty": "7",
        "minimum_orbit_intersection": ".0559588",
        "jupiter_tisserand_invariant": "3.090",
        "epoch_osculation": "2459000.5",
        "eccentricity": ".6825809839320901",
        "semi_major_axis": "2.34414000475754",
        "inclination": "27.47644055727179",
        "ascending_node_longitude": "209.0684405837771",
        "orbital_period": "1310.912626940163",
        "perihelion_distance": ".7440746138355642",
        "perihelion_argument": "78.02684116009728",
        "aphelion_distance": "3.944205395679517",
        "perihelion_time": "2458696.502353446685",
        "mean_anomaly": "83.48317844388941",
        "mean_motion": ".2746178445471884",
        "equinox": "J2000",
        "orbit_class": {
            "orbit_class_type": "APO",
            "orbit_class_description": "Near-Earth asteroid orbits which cross the Earth’s orbit similar to that of 1862 Apollo",
            "orbit_class_range": "a (semi-major axis) > 1.0 AU; q (perihelion) < 1.017 AU"
        }
    },
    "is_sentry_object": false
}